{"type": "FeatureCollection", "features": [ {"type": "Feature", "properties": {"norad_id": 35834, "name": "COSMOS 2251 DEB", "group": "cosmos-2251-debris", "lat": 0.7354901228262579, "lon": -67.05244748996914, "alt_km": 851.4859025676042, "timestamp": "2025-12-19T08:58:49.733784+00:00", "meta": {"OBJECT_NAME": "COSMOS 2251 DEB", "OBJECT_ID": "1993-036ATG", "EPOCH": "2025-12-18T21:21:21.733632", "MEAN_MOTION": 14.12989535, "ECCENTRICITY": 0.01093187, "INCLINATION": 73.9334, "RA_OF_ASC_NODE": 293.5971, "ARG_OF_PERICENTER": 92.3571, "MEAN_ANOMALY": 326.954, "EPHEMERIS_TYPE": 0, "CLASSIFICATION_TYPE": "U", "NORAD_CAT_ID": 35834, "ELEMENT_SET_NO": 999, "REV_AT_EPOCH": 66350, "BSTAR": 0.00038881457, "MEAN_MOTION_DOT": 7.43e-06, "MEAN_MOTION_DDOT": 0}, "tle": {"line1": "1 35834U 93036ATG 25352.88983488  .00000743  00000+0  38881-3 0  9991", "line2": "2 35834  73.9334 293.5971 0109318  92.3571 326.9540 14.12989535663505"}}, "geometry": {"type": "Point", "coordinates": [-67.05244748996914, 0.7354901228262579]}}, {"type": "Feature", "properties": {"norad_id": 35835, "name": "COSMOS 2251 DEB", "group": "cosmos-2251-debris", "lat": -59.44031194103767, "lon": -131.6569059861139, "alt_km": 994.6141522272101, "timestamp": "2025-12-19T08:58:49.733794+00:00", "meta": {"OBJECT_NAME": "COSMOS 2251 DEB", "OBJECT_ID": "1993-036ATH", "EPOCH": "2025-12-18T10:42:41.881248", "MEAN_MOTION": 13.82903566, "ECCENTRICITY": 0.02908362, "INCLINATION": 74.0638, "RA_OF_ASC_NODE": 258.8428, "ARG_OF_PERICENTER": 39.1295, "MEAN_ANOMALY": 323.047, "EPHEMERIS_TYPE": 0, "CLASSIFICATION_TYPE": "U", "NORAD_CAT_ID": 35835, "ELEMENT_SET_NO": 999, "REV_AT_EPOCH": 61778, "BSTAR": 0.0012842732, "MEAN_MOTION_DOT": 1.917e-05, "MEAN_MOTION_DDOT": 0}, "tle": {"line1": "1 35835U 93036ATH 25352.44631807  .00001917  00000+0  12843-2 0  9992", "line2": "2 35835  74.0638 258.8428 0290836  39.1295 323.0470 13.82903566617789"}}, "geometry": {"type": "Point", "coordinates": [-131.6569059861139, -59.44031194103767]}}, {"type": "Feature", "properties": {"norad_id": 35836, "name": "COSMOS 2251 DEB", "group": "cosmos-2251-debris", "lat": 70.65642602136383, "lon": -74.61216722706433, "alt_km": 657.801886829915, "timestamp": "2025-12-19T08:58:49.733805+00:00", "meta": {"OBJECT_NAME": "COSMOS 2251 DEB", "OBJECT_ID": "1993-036ATJ", "EPOCH": "2025-12-18T21:05:47.087808", "MEAN_MOTION": 14.71102537, "ECCENTRICITY": 0.00237596, "INCLINATION": 74.0304, "RA_OF_ASC_NODE": 161.0094, "ARG_OF_PERICENTER": 218.7723, "MEAN_ANOMALY": 141.1744, "EPHEMERIS_TYPE": 0, "CLASSIFICATION_TYPE": "U", "NORAD_CAT_ID": 35836, "ELEMENT_SET_NO": 999, "REV_AT_EPOCH": 63610, "BSTAR": 0.0015946851, "MEAN_MOTION_DOT": 9.832e-05, "MEAN_MOTION_DDOT": 0}, "tle": {"line1": "1 35836U 93036ATJ 25352.87901722  .00009832  00000+0  15947-2 0  9998", "line2": "2 35836  74.0304 161.0094 0023759 218.7723 141.1744 14.71102537636101"}}, "geometry": {"type": "Point", "coordinates": [-74.61216722706433, 70.65642602136383]}}, {"type": "Feature", "properties": {"norad_id": 35837, "name": "COSMOS 2251 DEB", "group": "cosmos-2251-debris", "lat": -22.460236209239177, "lon": -170.34722216670818, "alt_km": 1260.4352946203244, "timestamp": "2025-12-19T08:58:49.733815+00:00", "meta": {"OBJECT_NAME": "COSMOS 2251 DEB", "OBJECT_ID": "1993-036ATK", "EPOCH": "2025-12-18T00:20:48.751296", "MEAN_MOTION": 13.63508136, "ECCENTRICITY": 0.04220326, "INCLINATION": 73.7224, "RA_OF_ASC_NODE": 198.8518, "ARG_OF_PERICENTER": 118.8065, "MEAN_ANOMALY": 29.0541, "EPHEMERIS_TYPE": 0, "CLASSIFICATION_TYPE": "U", "NORAD_CAT_ID": 35837, "ELEMENT_SET_NO": 999, "REV_AT_EPOCH": 58048, "BSTAR": 0.0022137813, "MEAN_MOTION_DOT": 3.177e-05, "MEAN_MOTION_DDOT": 0}, "tle": {"line1": "1 35837U 93036ATK 25352.01445314  .00003177  00000+0  22138-2 0  9991", "line2": "2 35837  73.7224 198.8518 0422032 118.8065  29.0541 13.63508136580487"}}, "geometry": {"type": "Point", "coordinates": [-170.34722216670818, -22.460236209239177]}}, {"type": "Feature", "properties": {"norad_id": 35839, "name": "COSMOS 2251 DEB", "group": "cosmos-2251-debris", "lat": -57.7156721928435, "lon": 155.62565264570432, "alt_km": 404.227775706122, "timestamp": "2025-12-19T08:58:49.733826+00:00", "meta": {"OBJECT_NAME": "COSMOS 2251 DEB", "OBJECT_ID": "1993-036ATM", "EPOCH": "2025-12-18T21:09:02.023488", "MEAN_MOTION": 15.5659062, "ECCENTRICITY": 0.00051351, "INCLINATION": 74.2044, "RA_OF_ASC_NODE": 310.0858, "ARG_OF_PERICENTER": 137.0723, "MEAN_ANOMALY": 223.0896, "EPHEMERIS_TYPE": 0, "CLASSIFICATION_TYPE": "U", "NORAD_CAT_ID": 35839, "ELEMENT_SET_NO": 999, "REV_AT_EPOCH": 88663, "BSTAR": 0.0047388387, "MEAN_MOTION_DOT": 0.00352469, "MEAN_MOTION_DDOT": 0}, "tle": {"line1": "1 35839U 93036ATM 25352.88127342  .00352469  00000+0  47388-2 0  9991", "line2": "2 35839  74.2044 310.0858 0005135 137.0723 223.0896 15.56590620886633"}}, "geometry": {"type": "Point", "coordinates": [155.62565264570432, -57.7156721928435]}}, {"type": "Feature", "properties": {"norad_id": 35840, "name": "COSMOS 2251 DEB", "group": "cosmos-2251-debris", "lat": 56.51866551837388, "lon": -59.950411702748326, "alt_km": 734.114905820109, "timestamp": "2025-12-19T08:58:49.733836+00:00", "meta": {"OBJECT_NAME": "COSMOS 2251 DEB", "OBJECT_ID": "1993-036ATN", "EPOCH": "2025-12-12T04:26:56.474304", "MEAN_MOTION": 14.37821687, "ECCENTRICITY": 0.01162768, "INCLINATION": 73.9307, "RA_OF_ASC_NODE": 159.2062, "ARG_OF_PERICENTER": 61.7798, "MEAN_ANOMALY": 299.5037, "EPHEMERIS_TYPE": 0, "CLASSIFICATION_TYPE": "U", "NORAD_CAT_ID": 35840, "ELEMENT_SET_NO": 999, "REV_AT_EPOCH": 85283, "BSTAR": 0.0026691111, "MEAN_MOTION_DOT": 8.683e-05, "MEAN_MOTION_DDOT": 0}, "tle": {"line1": "1 35840U 93036ATN 25346.18537586  .00008683  00000+0  26691-2 0  9994", "line2": "2 35840  73.9307 159.2062 0116276  61.7798 299.5037 14.37821687852835"}}, "geometry": {"type": "Point", "coordinates": [-59.950411702748326, 56.51866551837388]}}, {"type": "Feature", "properties": {"norad_id": 35883, "name": "COSMOS 2251 DEB", "group": "cosmos-2251-debris", "lat": 57.30396835752189, "lon": 84.05234255873611, "alt_km": 750.7797792836782, "timestamp": "2025-12-19T08:58:49.733846+00:00", "meta": {"OBJECT_NAME": "COSMOS 2251 DEB", "OBJECT_ID": "1993-036ATW", "EPOCH": "2025-12-16T04:41:35.789568", "MEAN_MOTION": 14.50615193, "ECCENTRICITY": 0.00835028, "INCLINATION": 74.0253, "RA_OF_ASC_NODE": 63.5249, "ARG_OF_PERICENTER": 192.1269, "MEAN_ANOMALY": 197.0315, "EPHEMERIS_TYPE": 0, "CLASSIFICATION_TYPE": "U", "NORAD_CAT_ID": 35883, "ELEMENT_SET_NO": 999, "REV_AT_EPOCH": 62436, "BSTAR": 0.00022216854, "MEAN_MOTION_DOT": 8.82e-06, "MEAN_MOTION_DDOT": 0}, "tle": {"line1": "1 35883U 93036ATW 25350.19555312  .00000882  00000+0  22217-3 0  9998", "line2": "2 35883  74.0253  63.5249 0083502 192.1269 197.0315 14.50615193624369"}}, "geometry": {"type": "Point", "coordinates": [84.05234255873611, 57.30396835752189]}}, {"type": "Feature", "properties": {"norad_id": 35884, "name": "COSMOS 2251 DEB", "group": "cosmos-2251-debris", "lat": -73.87358377276067, "lon": -132.7802930500591, "alt_km": 885.6438628453661, "timestamp": "2025-12-19T08:58:49.733856+00:00", "meta": {"OBJECT_NAME": "COSMOS 2251 DEB", "OBJECT_ID": "1993-036ATX", "EPOCH": "2025-12-16T07:19:09.379488", "MEAN_MOTION": 14.25680751, "ECCENTRICITY": 0.01084022, "INCLINATION": 73.9902, "RA_OF_ASC_NODE": 329.5521, "ARG_OF_PERICENTER": 115.5254, "MEAN_ANOMALY": 245.7151, "EPHEMERIS_TYPE": 0, "CLASSIFICATION_TYPE": "U", "NORAD_CAT_ID": 35884, "ELEMENT_SET_NO": 999, "REV_AT_EPOCH": 22408, "BSTAR": 0.00087030299, "MEAN_MOTION_DOT": 2.171e-05, "MEAN_MOTION_DDOT": 0}, "tle": {"line1": "1 35884U 93036ATX 25350.30496967  .00002171  00000+0  87030-3 0  9999", "line2": "2 35884  73.9902 329.5521 0108402 115.5254 245.7151 14.25680751224085"}}, "geometry": {"type": "Point", "coordinates": [-132.7802930500591, -73.87358377276067]}}, {"type": "Feature", "properties": {"norad_id": 35885, "name": "COSMOS 2251 DEB", "group": "cosmos-2251-debris", "lat": -18.79471445977719, "lon": -83.01288861854968, "alt_km": 755.6684611405817, "timestamp": "2025-12-19T08:58:49.733866+00:00", "meta": {"OBJECT_NAME": "COSMOS 2251 DEB", "OBJECT_ID": "1993-036ATY", "EPOCH": "2025-12-18T13:01:42.797280", "MEAN_MOTION": 14.37531337, "ECCENTRICITY": 0.00235255, "INCLINATION": 74.0286, "RA_OF_ASC_NODE": 284.1104, "ARG_OF_PERICENTER": 3.2777, "MEAN_ANOMALY": 356.8526, "EPHEMERIS_TYPE": 0, "CLASSIFICATION_TYPE": "U", "NORAD_CAT_ID": 35885, "ELEMENT_SET_NO": 999, "REV_AT_EPOCH": 65099, "BSTAR": 0.00024530327, "MEAN_MOTION_DOT": 7.11e-06, "MEAN_MOTION_DDOT": 0}, "tle": {"line1": "1 35885U 93036ATY 25352.54285645  .00000711  00000+0  24530-3 0  9991", "line2": "2 35885  74.0286 284.1104 0023525   3.2777 356.8526 14.37531337650992"}}, "geometry": {"type": "Point", "coordinates": [-83.01288861854968, -18.79471445977719]}}, {"type": "Feature", "properties": {"norad_id": 35888, "name": "COSMOS 2251 DEB", "group": "cosmos-2251-debris", "lat": 65.01211488697668, "lon": 21.941242336911564, "alt_km": 667.1412887075521, "timestamp": "2025-12-19T08:58:49.733887+00:00", "meta": {"OBJECT_NAME": "COSMOS 2251 DEB", "OBJECT_ID": "1993-036AUB", "EPOCH": "2025-12-18T07:57:47.102688", "MEAN_MOTION": 14.58337918, "ECCENTRICITY": 0.00480061, "INCLINATION": 74.0336, "RA_OF_ASC_NODE": 346.0227, "ARG_OF_PERICENTER": 116.368, "MEAN_ANOMALY": 244.2425, "EPHEMERIS_TYPE": 0, "CLASSIFICATION_TYPE": "U", "NORAD_CAT_ID": 35888, "ELEMENT_SET_NO": 999, "REV_AT_EPOCH": 86355, "BSTAR": 0.00031008403, "MEAN_MOTION_DOT": 1.428e-05, "MEAN_MOTION_DDOT": 0}, "tle": {"line1": "1 35888U 93036AUB 25352.33179517  .00001428  00000+0  31008-3 0  9995", "line2": "2 35888  74.0336 346.0227 0048006 116.3680 244.2425 14.58337918863553"}}, "geometry": {"type": "Point", "coordinates": [21.941242336911564, 65.01211488697668]}}]}